#dP2023  4  5  0  0  0.00000000      96 __u+U ITR00 EXT  IAC
## 2256 259200.00000000   900.00000000 60039 0.0000000000000
+  120   C06C07C08C09C10C11C12C13C14C16C19C20C21C22C23C24C25
+        C26C27C28C29C30C32C33C34C35C36C37C38C39C40C41C42C43
+        C44C45C46E01E02E03E04E05E07E08E09E10E11E12E13E14E15
+        E18E19E21E24E25E26E27E30E31E33E34E36G01G02G03G04G05
+        G06G07G08G09G10G11G12G13G14G15G16G17G18G19G20G21G22
+        G23G24G25G26G27G28G29G30G31G32J02J03J04R01R02R03R04
+        R05R07R08R09R11R12R13R14R15R16R17R18R19R20R21R22R24
+        R25  0  0  0  0  0  0  0  0  0  0  0  0  0  0  0  0
++        11 10 11 11  9 10  9 10  9 11  8  9  9  8  8  9 10
++         8  8  8  9  8  8  9  9  9  8  8 10 11  9  9 10  9
++        10  9 10  8  7  7  8  7  7  8  9  8  8  7  7  7  7
++         6  7  8  7  7  7  7  7  9  8  8  8  7  7  8  9  7
++         7  8  8  9  8  7  7  8  7  7  9  7  7  7  7  6  8
++         8  7  7  8  6 11  8  8  7  7 10 10  9  9  9  7  8
++         7  8  9  7  8  6  8  7  7  9  8  7 10  8 10  8  9
++        10  0  0  0  0  0  0  0  0  0  0  0  0  0  0  0  0
%c M  cc GPS ccc cccc cccc cccc cccc ccccc ccccc ccccc ccccc
%c cc cc ccc ccc cccc cccc cccc cccc ccccc ccccc ccccc ccccc
%f  0.0000000  0.000000000  0.00000000000  0.000000000000000
%f  0.0000000  0.000000000  0.00000000000  0.000000000000000
%i    0    0    0    0      0      0      0      0         0
%i    0    0    0    0      0      0      0      0         0
/* IAC                                ULTRA-RAPID PREDICTION
/* S/V CLOCKS ARE ALIGNED TO GNSS TIME                      
/* G:C1WC2W R:C1PC2P E:C1XC5X C:C2IC6I J:C1CC2S             
/* PCV:IGS20_2247 OL/AL:FES2004  NONE     YN ORB:CoN CLK:CoN
*  2023 04 05 14 30  0.00000000
PC06 -16946.700265  37838.082433  -8403.361722   -197.246257
PC07  -3871.247184  32928.551753 -25916.719985   -125.502813
PC08 -12360.077299  19657.097081  35164.910074    509.619232
PC09 -11262.447959  37052.892017 -16912.087991    801.402897
PC10   3587.712245  35937.416612 -21059.616288    -25.974297
PC11 -17452.121865   5948.143600 -20880.510667    745.555378
PC12 -10065.482656 -13868.449856 -21991.708831    551.993358
PC13  -4493.153789  22024.749948  35815.531788    245.947238
PC14 -20014.934744  -3781.492886  19125.009857     83.568515
PC16 -18980.612180  37396.314317  -5464.080594    118.301648
PC19  15124.580720  -5903.795681 -22661.753568   -899.227631
PC20  21388.022095  11310.122438 -13857.237704    642.110460
PC21 -15187.964336 -23076.640827  -4027.297563   -909.270607
PC22   -164.012022 -20604.902816 -18827.459011   -550.657793
PC23 -11130.038053  16206.485164 -19803.495676   -900.021382
PC24 -25088.210516  -4332.530958  11384.316976   -207.807568
PC25 -25208.217974   9711.019767  -6968.771225    100.767786
PC26 -11308.046487 -13652.102743  21528.375180   -102.006553
PC27   4806.978614  21088.926600  17619.268523    121.142706
PC28  -8096.997207  26511.744329   3226.182748     89.075585
PC29  16799.467874 -16646.529375  14798.731696    103.079607
PC30  15498.652700   3981.809496  22851.045781      0.548588
PC32  15274.077592  22975.900582   4154.259401   -584.811191
PC33 -15212.129933   5900.793324  22651.801657   -872.245381
PC34 -16003.617555  -2517.518230 -22738.590487    142.285335
PC35   7734.903112 -26689.288577  -2322.738830    651.596045
PC36  25758.120354  -8709.455702   6313.146319   -519.703095
PC37   9639.919644  14377.801834 -21884.371755   -793.129454
PC38 -21122.977202  20198.052136  30378.943722     69.744073
PC39 -20424.934696  37017.663854    854.094725     -2.444936
PC40  -6731.175049  29080.582660 -29697.824339    -19.517458
PC41   -440.692373  20265.058678  19233.825147   -812.408615
PC42 -21506.694250 -12384.934054  12837.544686   -751.612876
PC43 -17098.195458  15853.568642 -15363.747350     15.229210
PC44  -5602.753961 -21025.099149 -17468.308231     66.550087
PC45  10706.412542 -16158.233791  20079.446382    -81.246288
PC46  25862.067382   3199.300436 -10041.994897    -44.875668
PE01 -27659.698904 -10405.841275  -1622.124137     -6.678597
PE02  27751.681168  10117.027097   2061.885497     30.563187
PE03  17074.901139   9213.924292 -22347.632546   -666.229379
PE04 -14276.731771  12840.067919  22539.196557    -93.987950
PE05   9883.828177  26411.961589  -8982.510326    -79.648645
PE07   3092.479835 -27836.954833  -9580.699165    -35.310409
PE08  14196.851550 -12620.318683 -22697.579197    -62.565545
PE09  -3128.712300  27746.544819   9810.936854   -894.295559
PE10 -20645.917099  20499.258949   5455.768717   -524.281406
PE11 -12725.491850  22102.626876  15032.695934   1502.348872
PE12 -24730.728230  15783.600284  -4039.381822   -486.611630
PE13  13404.246689 -22098.747691 -14411.626712    -18.302323
PE14  -1111.668837 -30824.035738   -466.607274    188.593105
PE15  24754.644456 -15609.106987   4396.589068    -12.449754
PE18  -6260.522455  23744.566633  -7677.865850   -200.596987
PE19 -16523.300406 -12188.327831  21333.368315  -2837.552838
PE21 -17703.068174 -18443.718445  14909.373552   -521.637134
PE24  -4085.848928  16438.899712 -24294.804067    -27.610226
PE25  17417.046779  18518.037453 -15169.951627   -602.710834
PE26  -6509.835005 -15194.654809 -24551.073029     66.387241
PE27   3172.157546 -16685.197383  24238.052375    -17.695536
PE30  22402.764297  -4616.484683  18781.442834    -68.549586
PE31 -21940.804211   5125.527843 -19192.015033   -520.488629
PE33 -21410.373213    -25.988764 -20444.800513   -447.105129
PE34  21485.241413   -138.948847  20353.730725    -38.641272
PE36   5629.491067  15578.134273  24534.802984    -36.859836
PG01   8762.977831 -18915.614732 -16565.272149    195.992704
PG02  -4129.561282  19583.905076  18198.609659   -608.857231
PG03  -1859.599754 -16466.665645 -20909.256382   -335.876806
PG04    473.807925 -26379.873219  -2460.120423      9.592105
PG05 -15060.426364   8676.802883  19946.880726   -122.237060
PG06 -21223.471501   1811.703171 -15865.430644    585.604838
PG07  -6320.139365 -14491.637952  21749.265369    208.035170
PG08   7492.483186 -21132.319055  13856.874585   -116.341514
PG09  -7928.788002 -24122.958264   7640.560374   -186.275669
PG10  24192.827061  11366.238913    -11.903812    -31.541955
PG11 -23505.916801  11881.756222  -3279.827241   -152.630712
PG12  -1807.723996  15985.206601 -21430.542491   -360.235161
PG13 -12922.813239  14800.639968  17600.264505    501.266819
PG14 -22803.863741 -13569.599635   2325.658541     16.118302
PG15  -4789.132919  22340.146995  12863.126646     27.920295
PG16  18236.071532  -4307.660210  18693.762778   -510.936091
PG17 -12677.458942 -13885.852732 -18290.236726    709.117241
PG18   9327.820878  11706.417968  21946.076676   -210.867934
PG19 -14828.992385  -3825.356601 -21952.599903    299.603818
PG20 -22428.456644   3817.425983  13576.660655    440.765488
PG21  15160.240703 -19572.000196  -7789.442581    154.292409
PG22  14969.094815   -320.598395 -21490.191631    458.628181
PG23  18091.423376  16127.669313  11040.337597     14.862803
PG24 -10909.137268  20833.270583 -12280.726245   -140.034462
PG25  10104.834220  18028.386418 -17147.758430    433.294794
PG26  25068.397949   2988.522177   8670.383772    241.887242
PG27  12961.737748 -10892.706273  20106.633220     65.500319
PG28  20399.208126   -403.024837 -17029.108828     59.399000
PG29   3126.066353  25946.421928   4424.240206   -594.179843
PG30 -17247.776776  -5708.403949  19560.539978   -523.801230
PG31  23513.869320  -5601.545337 -11683.918952   -213.275800
PG32  14605.476688  10589.855006 -19383.747161   -443.363603
PJ02 -26986.255729  15893.106900 -23662.595355     -1.420401
PJ03 -26958.287912  31792.593589  -1858.280906      1.844107
PJ04 -26573.733083  25939.893466  26006.229013     94.158747
PR01 -15189.642689 -19085.933383   7497.019789     26.112280
PR02 -13532.362601  -4172.069889  21250.284826    -22.990076
PR03  -4573.005233  12926.825432  21573.402050     75.492455
PR04   6697.100414  22467.581993  10098.504529    182.146483
PR05  14283.143123  19982.254115  -6906.640477    110.491741
PR07   4055.342997 -13516.759507 -21191.174138     53.198863
PR08  -6959.653748 -22475.395293  -9754.905731    -70.206382
PR09  25368.019075  -1043.378848   2000.827476    113.072488
PR11   -281.365722 -10931.282192  23052.393215    -30.580244
PR12 -19241.948363  -7516.744156  14972.833196     26.219966
PR13 -25506.337942   -103.877735   -148.502695    -33.659781
PR14 -16754.824636   8224.946488 -17387.862126     24.514932
PR15   1483.957107  11047.486720 -22928.621740     89.985659
PR16  19044.630354   7374.947524 -15257.504973     13.194423
PR17 -14759.376495  20397.987799  -3985.402052    618.535536
PR18  -6821.304640  21239.175462  12436.971567     75.042134
PR19   3477.850461  12356.535280  22040.659655   -227.922995
PR20  15004.524013  -6797.067765  19462.563923    -90.550373
PR21  14370.399684 -20966.441148   2249.497139   -385.701290
PR22   6760.999123 -20813.930869 -13064.657449     78.001125
PR24 -15292.970627   7711.148375 -18886.573019    159.543398
PR25  15819.376573 -19576.766508   4194.299509     59.882748
EOF
